{
  "type": "FeatureCollection",
  "features": [
    {
      "type": "Feature",
      "properties": {
        "norad_id": 34366,
        "name": "IRIDIUM 33 DEB",
        "group": "iridium-33-debris",
        "lat": -44.68241401366224,
        "lon": -132.48992930019867,
        "alt_km": 727.9858566962002,
        "timestamp": "2025-12-25T03:55:56.751647+00:00",
        "meta_object_name": "IRIDIUM 33 DEB",
        "meta_object_id": "1997-051FJ",
        "meta_epoch": "2025-12-24T14:23:48.658272",
        "meta_mean_motion": 14.54144836,
        "meta_eccentricity": 0.0023037,
        "meta_inclination": 86.3684,
        "meta_ra_of_asc_node": 44.1543,
        "meta_arg_of_pericenter": 102.8628,
        "meta_mean_anomaly": 51.1135,
        "meta_ephemeris_type": 0,
        "meta_classification_type": "U",
        "meta_norad_cat_id": 34366,
        "meta_element_set_no": 999,
        "meta_rev_at_epoch": 88354,
        "meta_bstar": 0.00090361,
        "meta_mean_motion_dot": 3.853e-05,
        "meta_mean_motion_ddot": 0,
        "tle_line1": "1 34366U 97051FJ  25358.59986873  .00003853  00000+0  90361-3 0  9992",
        "tle_line2": "2 34366  86.3684  44.1543 0023037 102.8628  51.1135 14.54144836883546"
      },
      "geometry": {
        "type": "Point",
        "coordinates": [
          -132.48992930019867,
          -44.68241401366224
        ]
      }
    },
    {
      "type": "Feature",
      "properties": {
        "norad_id": 34375,
        "name": "IRIDIUM 33 DEB",
        "group": "iridium-33-debris",
        "lat": -33.799677329082485,
        "lon": 175.2996362552864,
        "alt_km": 876.9674358986222,
        "timestamp": "2025-12-25T03:55:56.751657+00:00",
        "meta_object_name": "IRIDIUM 33 DEB",
        "meta_object_id": "1997-051FT",
        "meta_epoch": "2025-12-24T13:09:42.393312",
        "meta_mean_motion": 14.1801304,
        "meta_eccentricity": 0.0103694,
        "meta_inclination": 86.4324,
        "meta_ra_of_asc_node": 177.9413,
        "meta_arg_of_pericenter": 89.8064,
        "meta_mean_anomaly": 337.6478,
        "meta_ephemeris_type": 0,
        "meta_classification_type": "U",
        "meta_norad_cat_id": 34375,
        "meta_element_set_no": 999,
        "meta_rev_at_epoch": 86879,
        "meta_bstar": 0.00038926,
        "meta_mean_motion_dot": 8.6e-06,
        "meta_mean_motion_ddot": 0,
        "tle_line1": "1 34375U 97051FT  25358.54840733  .00000860  00000+0  38926-3 0  9995",
        "tle_line2": "2 34375  86.4324 177.9413 0103694  89.8064 337.6478 14.18013040868799"
      },
      "geometry": {
        "type": "Point",
        "coordinates": [
          175.2996362552864,
          -33.799677329082485
        ]
      }
    },
    {
      "type": "Feature",
      "properties": {
        "norad_id": 34376,
        "name": "IRIDIUM 33 DEB",
        "group": "iridium-33-debris",
        "lat": 6.006148020511467,
        "lon": -179.43708358354752,
        "alt_km": 673.1472330606366,
        "timestamp": "2025-12-25T03:55:56.751668+00:00",
        "meta_object_name": "IRIDIUM 33 DEB",
        "meta_object_id": "1997-051FU",
        "meta_epoch": "2025-12-24T17:17:28.891392",
        "meta_mean_motion": 14.62726881,
        "meta_eccentricity": 0.0028437,
        "meta_inclination": 86.2983,
        "meta_ra_of_asc_node": 1.1525,
        "meta_arg_of_pericenter": 127.427,
        "meta_mean_anomaly": 232.9536,
        "meta_ephemeris_type": 0,
        "meta_classification_type": "U",
        "meta_norad_cat_id": 34376,
        "meta_element_set_no": 999,
        "meta_rev_at_epoch": 88182,
        "meta_bstar": 0.0015332,
        "meta_mean_motion_dot": 7.879e-05,
        "meta_mean_motion_ddot": 0,
        "tle_line1": "1 34376U 97051FU  25358.72047328  .00007879  00000+0  15332-2 0  9997",
        "tle_line2": "2 34376  86.2983   1.1525 0028437 127.4270 232.9536 14.62726881881824"
      },
      "geometry": {
        "type": "Point",
        "coordinates": [
          -179.43708358354752,
          6.006148020511467
        ]
      }
    },
    {
      "type": "Feature",
      "properties": {
        "norad_id": 34486,
        "name": "IRIDIUM 33 DEB",
        "group": "iridium-33-debris",
        "lat": 81.80870720519721,
        "lon": 32.28060130480844,
        "alt_km": 561.230988981778,
        "timestamp": "2025-12-25T03:55:56.751678+00:00",
        "meta_object_name": "IRIDIUM 33 DEB",
        "meta_object_id": "1997-051GB",
        "meta_epoch": "2025-12-24T00:31:38.959680",
        "meta_mean_motion": 14.96285435,
        "meta_eccentricity": 0.00139233,
        "meta_inclination": 86.3926,
        "meta_ra_of_asc_node": 6.8146,
        "meta_arg_of_pericenter": 80.2681,
        "meta_mean_anomaly": 335.5299,
        "meta_ephemeris_type": 0,
        "meta_classification_type": "U",
        "meta_norad_cat_id": 34486,
        "meta_element_set_no": 999,
        "meta_rev_at_epoch": 89155,
        "meta_bstar": 0.0020880938,
        "meta_mean_motion_dot": 0.00023707,
        "meta_mean_motion_ddot": 0,
        "tle_line1": "1 34486U 97051GB  25358.02197870  .00023707  00000+0  20881-2 0  9993",
        "tle_line2": "2 34486  86.3926   6.8146 0013923  80.2681 335.5299 14.96285435891550"
      },
      "geometry": {
        "type": "Point",
        "coordinates": [
          32.28060130480844,
          81.80870720519721
        ]
      }
    },
    {
      "type": "Feature",
      "properties": {
        "norad_id": 34487,
        "name": "IRIDIUM 33 DEB",
        "group": "iridium-33-debris",
        "lat": -77.52091724531608,
        "lon": -156.1747676257349,
        "alt_km": 778.4967628223176,
        "timestamp": "2025-12-25T03:55:56.751689+00:00",
        "meta_object_name": "IRIDIUM 33 DEB",
        "meta_object_id": "1997-051GC",
        "meta_epoch": "2025-12-24T00:25:07.192704",
        "meta_mean_motion": 14.43230021,
        "meta_eccentricity": 0.00332562,
        "meta_inclination": 86.3429,
        "meta_ra_of_asc_node": 7.5212,
        "meta_arg_of_pericenter": 93.3155,
        "meta_mean_anomaly": 332.1294,
        "meta_ephemeris_type": 0,
        "meta_classification_type": "U",
        "meta_norad_cat_id": 34487,
        "meta_element_set_no": 999,
        "meta_rev_at_epoch": 88411,
        "meta_bstar": 0.00017640846,
        "meta_mean_motion_dot": 6.17e-06,
        "meta_mean_motion_ddot": 0,
        "tle_line1": "1 34487U 97051GC  25358.01744436  .00000617  00000+0  17641-3 0  9995",
        "tle_line2": "2 34487  86.3429   7.5212 0033256  93.3155 332.1294 14.43230021884118"
      },
      "geometry": {
        "type": "Point",
        "coordinates": [
          -156.1747676257349,
          -77.52091724531608
        ]
      }
    },
    {
      "type": "Feature",
      "properties": {
        "norad_id": 34488,
        "name": "IRIDIUM 33 DEB",
        "group": "iridium-33-debris",
        "lat": -3.2874064567769365,
        "lon": 119.85960891048953,
        "alt_km": 477.9074038761946,
        "timestamp": "2025-12-25T03:55:56.751700+00:00",
        "meta_object_name": "IRIDIUM 33 DEB",
        "meta_object_id": "1997-051GD",
        "meta_epoch": "2025-12-23T07:14:56.478912",
        "meta_mean_motion": 15.32002527,
        "meta_eccentricity": 0.00097213,
        "meta_inclination": 86.3275,
        "meta_ra_of_asc_node": 300.5735,
        "meta_arg_of_pericenter": 36.3388,
        "meta_mean_anomaly": 323.852,
        "meta_ephemeris_type": 0,
        "meta_classification_type": "U",
        "meta_norad_cat_id": 34488,
        "meta_element_set_no": 999,
        "meta_rev_at_epoch": 89401,
        "meta_bstar": 0.0045068376,
        "meta_mean_motion_dot": 0.00141753,
        "meta_mean_motion_ddot": 0,
        "tle_line1": "1 34488U 97051GD  25357.30204258  .00141753  00000+0  45068-2 0  9990",
        "tle_line2": "2 34488  86.3275 300.5735 0009721  36.3388 323.8520 15.32002527894015"
      },
      "geometry": {
        "type": "Point",
        "coordinates": [
          119.85960891048953,
          -3.2874064567769365
        ]
      }
    },
    {
      "type": "Feature",
      "properties": {
        "norad_id": 34492,
        "name": "IRIDIUM 33 DEB",
        "group": "iridium-33-debris",
        "lat": -66.41834286214339,
        "lon": -38.519841157734305,
        "alt_km": 823.2034056850689,
        "timestamp": "2025-12-25T03:55:56.751710+00:00",
        "meta_object_name": "IRIDIUM 33 DEB",
        "meta_object_id": "1997-051GH",
        "meta_epoch": "2025-12-23T09:11:16.550880",
        "meta_mean_motion": 14.25905293,
        "meta_eccentricity": 0.01887647,
        "meta_inclination": 86.4718,
        "meta_ra_of_asc_node": 330.3252,
        "meta_arg_of_pericenter": 203.591,
        "meta_mean_anomaly": 310.8385,
        "meta_ephemeris_type": 0,
        "meta_classification_type": "U",
        "meta_norad_cat_id": 34492,
        "meta_element_set_no": 999,
        "meta_rev_at_epoch": 85210,
        "meta_bstar": 0.0030136901,
        "meta_mean_motion_dot": 8.678e-05,
        "meta_mean_motion_ddot": 0,
        "tle_line1": "1 34492U 97051GH  25357.38283045  .00008678  00000+0  30137-2 0  9993",
        "tle_line2": "2 34492  86.4718 330.3252 0188764 203.5910 310.8385 14.25905293852104"
      },
      "geometry": {
        "type": "Point",
        "coordinates": [
          -38.519841157734305,
          -66.41834286214339
        ]
      }
    }
  ]
}